[{"OBJECT_NAME":"STARLINK-30701","OBJECT_ID":"2023-148R","EPOCH":"2026-03-09T05:54:16.501248","MEAN_MOTION":15.30193645,"ECCENTRICITY":9.674e-5,"INCLINATION":53.1629,"RA_OF_ASC_NODE":26.3782,"ARG_OF_PERICENTER":83.9632,"MEAN_ANOMALY":276.1479,"EPHEMERIS_TYPE":0,"CLASSIFICATION_TYPE":"U","NORAD_CAT_ID":57950,"ELEMENT_SET_NO":999,"REV_AT_EPOCH":13835,"BSTAR":-8.976134e-6,"MEAN_MOTION_DOT":-6.25e-6,"MEAN_MOTION_DDOT":0},{"OBJECT_NAME":"SL-3 R\/B","OBJECT_ID":"1981-065B","EPOCH":"2026-03-09T21:58:16.284000","MEAN_MOTION":15.33300883,"ECCENTRICITY":0.00117648,"INCLINATION":97.6337,"RA_OF_ASC_NODE":111.1786,"ARG_OF_PERICENTER":10.529,"MEAN_ANOMALY":349.6196,"EPHEMERIS_TYPE":0,"CLASSIFICATION_TYPE":"U","NORAD_CAT_ID":12586,"ELEMENT_SET_NO":999,"REV_AT_EPOCH":43499,"BSTAR":0.00030084921,"MEAN_MOTION_DOT":9.62e-5,"MEAN_MOTION_DDOT":0}]
